CCSDS_OMM_VERS = 2.0
CREATION_DATE  = 
ORIGINATOR     = 

OBJECT_NAME    = SL-16 R/B
OBJECT_ID      = 1993-016B
CENTER_NAME    = EARTH
REF_FRAME      = TEME
TIME_SYSTEM    = UTC
MEAN_ELEMENT_THEORY = SGP/SGP4

EPOCH          = 2025-12-22T19:29:27.449664
MEAN_MOTION    = 14.15291126
ECCENTRICITY   = .0008034
INCLINATION    = 71.0082
RA_OF_ASC_NODE = 16.6486
ARG_OF_PERICENTER = 77.6915
MEAN_ANOMALY   = 282.5107

EPHEMERIS_TYPE = 0
CLASSIFICATION_TYPE = U
NORAD_CAT_ID   = 22566
ELEMENT_SET_NO = 999
REV_AT_EPOCH   = 69129
BSTAR          = .19379E-3
MEAN_MOTION_DOT = .33E-5
MEAN_MOTION_DDOT = 0

CCSDS_OMM_VERS = 2.0
CREATION_DATE  = 
ORIGINATOR     = 

OBJECT_NAME    = COSMOS 2242
OBJECT_ID      = 1993-024A
CENTER_NAME    = EARTH
REF_FRAME      = TEME
TIME_SYSTEM    = UTC
MEAN_ELEMENT_THEORY = SGP/SGP4

EPOCH          = 2025-12-22T09:36:35.017056
MEAN_MOTION    = 14.96143779
ECCENTRICITY   = .00156186
INCLINATION    = 82.5187
RA_OF_ASC_NODE = 340.6103
ARG_OF_PERICENTER = 199.5609
MEAN_ANOMALY   = 160.5016

EPHEMERIS_TYPE = 0
CLASSIFICATION_TYPE = U
NORAD_CAT_ID   = 22626
ELEMENT_SET_NO = 999
REV_AT_EPOCH   = 76883
BSTAR          = .16729605E-3
MEAN_MOTION_DOT = .1913E-4
MEAN_MOTION_DDOT = 0

CCSDS_OMM_VERS = 2.0
CREATION_DATE  = 
ORIGINATOR     = 

OBJECT_NAME    = SL-16 R/B
OBJECT_ID      = 1993-059B
CENTER_NAME    = EARTH
REF_FRAME      = TEME
TIME_SYSTEM    = UTC
MEAN_ELEMENT_THEORY = SGP/SGP4

EPOCH          = 2025-12-22T19:48:30.610656
MEAN_MOTION    = 14.17214397
ECCENTRICITY   = .0018469
INCLINATION    = 70.9879
RA_OF_ASC_NODE = 173.2180
ARG_OF_PERICENTER = 321.4156
MEAN_ANOMALY   = 38.5646

EPHEMERIS_TYPE = 0
CLASSIFICATION_TYPE = U
NORAD_CAT_ID   = 22803
ELEMENT_SET_NO = 999
REV_AT_EPOCH   = 66864
BSTAR          = .14066E-3
MEAN_MOTION_DOT = .236E-5
MEAN_MOTION_DDOT = 0

CCSDS_OMM_VERS = 2.0
CREATION_DATE  = 
ORIGINATOR     = 

OBJECT_NAME    = ARIANE 40 R/B
OBJECT_ID      = 1993-061H
CENTER_NAME    = EARTH
REF_FRAME      = TEME
TIME_SYSTEM    = UTC
MEAN_ELEMENT_THEORY = SGP/SGP4

EPOCH          = 2025-12-22T19:32:03.568416
MEAN_MOTION    = 14.32807685
ECCENTRICITY   = .0011422
INCLINATION    = 98.5063
RA_OF_ASC_NODE = 62.1601
ARG_OF_PERICENTER = 147.3834
MEAN_ANOMALY   = 212.8057

EPHEMERIS_TYPE = 0
CLASSIFICATION_TYPE = U
NORAD_CAT_ID   = 22830
ELEMENT_SET_NO = 999
REV_AT_EPOCH   = 68309
BSTAR          = .96823E-4
MEAN_MOTION_DOT = .221E-5
MEAN_MOTION_DDOT = 0

CCSDS_OMM_VERS = 2.0
CREATION_DATE  = 
ORIGINATOR     = 

OBJECT_NAME    = COSMOS 2278
OBJECT_ID      = 1994-023A
CENTER_NAME    = EARTH
REF_FRAME      = TEME
TIME_SYSTEM    = UTC
MEAN_ELEMENT_THEORY = SGP/SGP4

EPOCH          = 2025-12-22T08:48:02.512800
MEAN_MOTION    = 14.14348172
ECCENTRICITY   = .00078873
INCLINATION    = 71.0534
RA_OF_ASC_NODE = 336.8691
ARG_OF_PERICENTER = 162.5774
MEAN_ANOMALY   = 197.5620

EPHEMERIS_TYPE = 0
CLASSIFICATION_TYPE = U
NORAD_CAT_ID   = 23087
ELEMENT_SET_NO = 999
REV_AT_EPOCH   = 63387
BSTAR          = -.1300335E-4
MEAN_MOTION_DOT = -.72E-6
MEAN_MOTION_DDOT = 0

CCSDS_OMM_VERS = 2.0
CREATION_DATE  = 
ORIGINATOR     = 

OBJECT_NAME    = SL-16 R/B
OBJECT_ID      = 1994-023B
CENTER_NAME    = EARTH
REF_FRAME      = TEME
TIME_SYSTEM    = UTC
MEAN_ELEMENT_THEORY = SGP/SGP4

EPOCH          = 2025-12-22T17:32:49.637184
MEAN_MOTION    = 14.15000614
ECCENTRICITY   = .0001949
INCLINATION    = 70.9984
RA_OF_ASC_NODE = 232.5043
ARG_OF_PERICENTER = 6.0892
MEAN_ANOMALY   = 354.0254

EPHEMERIS_TYPE = 0
CLASSIFICATION_TYPE = U
NORAD_CAT_ID   = 23088
ELEMENT_SET_NO = 999
REV_AT_EPOCH   = 63520
BSTAR          = -.10316E-3
MEAN_MOTION_DOT = -.247E-5
MEAN_MOTION_DDOT = 0

CCSDS_OMM_VERS = 2.0
CREATION_DATE  = 
ORIGINATOR     = 

OBJECT_NAME    = SL-16 R/B
OBJECT_ID      = 1994-074B
CENTER_NAME    = EARTH
REF_FRAME      = TEME
TIME_SYSTEM    = UTC
MEAN_ELEMENT_THEORY = SGP/SGP4

EPOCH          = 2025-12-22T20:12:28.304064
MEAN_MOTION    = 14.79300476
ECCENTRICITY   = .0008011
INCLINATION    = 97.7190
RA_OF_ASC_NODE = 25.7446
ARG_OF_PERICENTER = 108.1375
MEAN_ANOMALY   = 64.6407

EPHEMERIS_TYPE = 0
CLASSIFICATION_TYPE = U
NORAD_CAT_ID   = 23343
ELEMENT_SET_NO = 999
REV_AT_EPOCH   = 67588
BSTAR          = .63511E-4
MEAN_MOTION_DOT = .423E-5
MEAN_MOTION_DDOT = 0

CCSDS_OMM_VERS = 2.0
CREATION_DATE  = 
ORIGINATOR     = 

OBJECT_NAME    = SL-16 R/B
OBJECT_ID      = 1994-077B
CENTER_NAME    = EARTH
REF_FRAME      = TEME
TIME_SYSTEM    = UTC
MEAN_ELEMENT_THEORY = SGP/SGP4

EPOCH          = 2025-12-22T19:31:20.542080
MEAN_MOTION    = 14.15552767
ECCENTRICITY   = .0005017
INCLINATION    = 70.9820
RA_OF_ASC_NODE = 154.2212
ARG_OF_PERICENTER = 277.2991
MEAN_ANOMALY   = 82.7561

EPHEMERIS_TYPE = 0
CLASSIFICATION_TYPE = U
NORAD_CAT_ID   = 23405
ELEMENT_SET_NO = 999
REV_AT_EPOCH   = 60535
BSTAR          = -.42079E-4
MEAN_MOTION_DOT = -.13E-5
MEAN_MOTION_DDOT = 0

CCSDS_OMM_VERS = 2.0
CREATION_DATE  = 
ORIGINATOR     = 

OBJECT_NAME    = ARIANE 40+ R/B
OBJECT_ID      = 1995-021B
CENTER_NAME    = EARTH
REF_FRAME      = TEME
TIME_SYSTEM    = UTC
MEAN_ELEMENT_THEORY = SGP/SGP4

EPOCH          = 2025-12-22T19:46:33.733920
MEAN_MOTION    = 14.39702757
ECCENTRICITY   = .0006968
INCLINATION    = 98.4638
RA_OF_ASC_NODE = 64.2908
ARG_OF_PERICENTER = 22.0140
MEAN_ANOMALY   = 91.1661

EPHEMERIS_TYPE = 0
CLASSIFICATION_TYPE = U
NORAD_CAT_ID   = 23561
ELEMENT_SET_NO = 999
REV_AT_EPOCH   = 60818
BSTAR          = .10506E-3
MEAN_MOTION_DOT = .285E-5
MEAN_MOTION_DDOT = 0

CCSDS_OMM_VERS = 2.0
CREATION_DATE  = 
ORIGINATOR     = 

OBJECT_NAME    = SL-16 R/B
OBJECT_ID      = 1995-058B
CENTER_NAME    = EARTH
REF_FRAME      = TEME
TIME_SYSTEM    = UTC
MEAN_ELEMENT_THEORY = SGP/SGP4

EPOCH          = 2025-12-22T09:25:21.537696
MEAN_MOTION    = 14.15482242
ECCENTRICITY   = .00147938
INCLINATION    = 71.0219
RA_OF_ASC_NODE = 342.5381
ARG_OF_PERICENTER = 242.6678
MEAN_ANOMALY   = 117.2939

EPHEMERIS_TYPE = 0
CLASSIFICATION_TYPE = U
NORAD_CAT_ID   = 23705
ELEMENT_SET_NO = 999
REV_AT_EPOCH   = 55691
BSTAR          = -.98281201E-4
MEAN_MOTION_DOT = -.24E-5
MEAN_MOTION_DDOT = 0

CCSDS_OMM_VERS = 2.0
CREATION_DATE  = 
ORIGINATOR     = 

OBJECT_NAME    = SL-16 R/B
OBJECT_ID      = 1996-051B
CENTER_NAME    = EARTH
REF_FRAME      = TEME
TIME_SYSTEM    = UTC
MEAN_ELEMENT_THEORY = SGP/SGP4

EPOCH          = 2025-12-22T06:17:23.079552
MEAN_MOTION    = 14.12397350
ECCENTRICITY   = .00194888
INCLINATION    = 70.7595
RA_OF_ASC_NODE = 339.1276
ARG_OF_PERICENTER = 249.6694
MEAN_ANOMALY   = 110.2332

EPHEMERIS_TYPE = 0
CLASSIFICATION_TYPE = U
NORAD_CAT_ID   = 24298
ELEMENT_SET_NO = 999
REV_AT_EPOCH   = 51071
BSTAR          = .416334E-5
MEAN_MOTION_DOT = -.42E-6
MEAN_MOTION_DDOT = 0

CCSDS_OMM_VERS = 2.0
CREATION_DATE  = 
ORIGINATOR     = 

OBJECT_NAME    = ORBVIEW 2 (SEASTAR)
OBJECT_ID      = 1997-037A
CENTER_NAME    = EARTH
REF_FRAME      = TEME
TIME_SYSTEM    = UTC
MEAN_ELEMENT_THEORY = SGP/SGP4

EPOCH          = 2025-12-22T06:08:26.536416
MEAN_MOTION    = 14.35423579
ECCENTRICITY   = .00013073
INCLINATION    = 98.8461
RA_OF_ASC_NODE = 153.5701
ARG_OF_PERICENTER = 301.6723
MEAN_ANOMALY   = 58.4334

EPHEMERIS_TYPE = 0
CLASSIFICATION_TYPE = U
NORAD_CAT_ID   = 24883
ELEMENT_SET_NO = 999
REV_AT_EPOCH   = 49736
BSTAR          = .10771355E-3
MEAN_MOTION_DOT = .263E-5
MEAN_MOTION_DDOT = 0

