SL-16 R/B               
1 22566U 93016B   25356.81212326  .00000330  00000+0  19379-3 0  9993
2 22566  71.0082  16.6486 0008034  77.6915 282.5107 14.15291126691296
COSMOS 2242             
1 22626U 93024A   25356.40040529  .00001913  00000+0  16730-3 0  9994
2 22626  82.5187 340.6103 0015618 199.5609 160.5016 14.96143779768830
SL-16 R/B               
1 22803U 93059B   25356.82535429  .00000236  00000+0  14066-3 0  9990
2 22803  70.9879 173.2180 0018469 321.4156  38.5646 14.17214397668640
ARIANE 40 R/B           
1 22830U 93061H   25356.81393019  .00000221  00000+0  96823-4 0  9995
2 22830  98.5063  62.1601 0011422 147.3834 212.8057 14.32807685683099
COSMOS 2278             
1 23087U 94023A   25356.36669575 -.00000072  00000+0 -13003-4 0  9997
2 23087  71.0534 336.8691 0007887 162.5774 197.5620 14.14348172633872
SL-16 R/B               
1 23088U 94023B   25356.73113006 -.00000247  00000+0 -10316-3 0  9999
2 23088  70.9984 232.5043 0001949   6.0892 354.0254 14.15000614635208
SL-16 R/B               
1 23343U 94074B   25356.84199426  .00000423  00000+0  63511-4 0  9991
2 23343  97.7190  25.7446 0008011 108.1375  64.6407 14.79300476675885
SL-16 R/B               
1 23405U 94077B   25356.81343220 -.00000130  00000+0 -42079-4 0  9996
2 23405  70.9820 154.2212 0005017 277.2991  82.7561 14.15552767605350
ARIANE 40+ R/B          
1 23561U 95021B   25356.82400155  .00000285  00000+0  10506-3 0  9999
2 23561  98.4638  64.2908 0006968  22.0140  91.1661 14.39702757608186
SL-16 R/B               
1 23705U 95058B   25356.39261039 -.00000240  00000+0 -98281-4 0  9997
2 23705  71.0219 342.5381 0014793 242.6678 117.2939 14.15482242556915
SL-16 R/B               
1 24298U 96051B   25356.26207268 -.00000042  00000+0  41633-5 0  9998
2 24298  70.7595 339.1276 0019488 249.6694 110.2332 14.12397350510712
ORBVIEW 2 (SEASTAR)     
1 24883U 97037A   25356.25586269  .00000263  00000+0  10771-3 0  9994
2 24883  98.8461 153.5701 0001307 301.6723  58.4334 14.35423579497367
